 HQ AFSPC Sgp4Prop DLL - Version: v8.0 - Build: Nov 05 2020 - Platform: Windows 64-bit                                         


EPHEMERIS GENERATED BY SGP4 USING THE WGS-72 EARTH MODEL
COORDINATE FRAME=TRUE EQUATOR AND MEAN EQUINOX OF EPOCH
USING THE FK5 MEAN OF J2000 TIME AND REFERENCE FRAME

INPUT FILE = input\rel14_type4.inp
Start Time =         0.0000 min from epoch
Stop Time  =     43200.0000 min from epoch
Step size  =      2700.0000 min


     TSINCE (MIN)     N (REVS/DAY)          ECC (-)        INC (DEG)       NODE (DEG)      OMEGA (DEG)         MA (DEG)


 1 90021U RELEAS14 00051.47568104 +.00000184  00000 0  00000 0 4 0814                                                                                                                                                                                                                                                                                                                                                                                                                                                           
 2 90021   0.0222 182.4923 0000720  45.6036 131.8822  1.0027132801199                                                                                                                                                                                                                                                                                                                                                                                                                                                           

         0.0000000        1.0027133        0.0000720        0.0222000      182.4923000       45.6036000      131.8822000
      2700.0000000        1.0027570        0.0000663        0.0251714      180.6198558      331.5439461      164.7152258
      5400.0000000        1.0028045        0.0001244        0.0255988      178.4431649      332.4213216      122.9131446
      8100.0000000        1.0027596        0.0001137        0.0248872      173.2100762      358.2727163       59.2064658
     10800.0000000        1.0028045        0.0000877        0.0254409      163.8840988      358.3781377       25.3465309
     13500.0000000        1.0027841        0.0001222        0.0279669      153.7863496        3.3276682      347.4192496
     16200.0000000        1.0027994        0.0001524        0.0324116      148.6145536       22.3611708      290.4930673
     18900.0000000        1.0028652        0.0001579        0.0377493      147.9202884       45.9318883      224.5508603
     21600.0000000        1.0027905        0.0000963        0.0415956      148.7278733       47.0103387      179.6035658
     24300.0000000        1.0028202        0.0001062        0.0429428      149.6769302       16.7678799      165.8495040
     27000.0000000        1.0028832        0.0001502        0.0427175      147.8509023       26.4310121      114.9596777
     29700.0000000        1.0028354        0.0001336        0.0427380      142.4741705       60.5155144       43.2108414
     32400.0000000        1.0028808        0.0000799        0.0462450      136.4961594       75.4906117      351.1821435
     35100.0000000        1.0028519        0.0000957        0.0522149      132.9652963       53.0102319      334.1643198
     37800.0000000        1.0028725        0.0001383        0.0571259      133.1852294       70.7910574      273.1482417
     40500.0000000        1.0029420        0.0001182        0.0604023      134.8505856       94.8305239      204.4215499
     43200.0000000        1.0028629        0.0000374        0.0609359      135.2178201       49.7613056      206.1115080


 1 90022U RELEAS14 00051.59174492 +.00000136  00000 0  00000 0 4 0733                                                                                                                                                                                                                                                                                                                                                                                                                                                           
 2 90022   4.5701  71.6069 0014162  60.8451 299.2453  0.9654587100306                                                                                                                                                                                                                                                                                                                                                                                                                                                           

         0.0000000        0.9654587        0.0014162        4.5701000       71.6069000       60.8451000      299.2453000
      2700.0000000        0.9653615        0.0014489        4.5703120       71.5995772       56.3009085      235.4703952
      5400.0000000        0.9654464        0.0015421        4.5719405       71.5671243       56.6147658      166.8704996
      8100.0000000        0.9653961        0.0015047        4.5748826       71.5311266       57.9600522       97.2481923
     10800.0000000        0.9654244        0.0015029        4.5793593       71.5161743       56.8887894       30.0234654
     13500.0000000        0.9653997        0.0015376        4.5836830       71.5143218       58.4432297      320.1605112
     16200.0000000        0.9654293        0.0015069        4.5867584       71.5384004       60.1418770      250.1161286
     18900.0000000        0.9653596        0.0014863        4.5882710       71.5535875       57.4546034      184.4710580
     21600.0000000        0.9654509        0.0015636        4.5882082       71.5578015       57.7386543      115.8544921
     24300.0000000        0.9653672        0.0015072        4.5884261       71.5309515       61.7265091       43.5754449
     27000.0000000        0.9654591        0.0014084        4.5909809       71.4838512       60.7429046      336.2882202
     29700.0000000        0.9653970        0.0014740        4.5951275       71.4405768       59.6573382      269.1084687
     32400.0000000        0.9654120        0.0014498        4.6013205       71.4316949       60.9949258      199.4645302
     35100.0000000        0.9654143        0.0014332        4.6057706       71.4456636       57.9531997      134.1779204
     37800.0000000        0.9653870        0.0014936        4.6077620       71.4701919       58.1228571       65.6521912
     40500.0000000        0.9654148        0.0014314        4.6079386       71.4623794       60.6457082      354.8191559
     43200.0000000        0.9654104        0.0014225        4.6085713       71.4241372       57.6210062      289.5521588


 1 90023U RELEAS14 00051.45013393 +.00000064  00000 0  00000 0 4 0221                                                                                                                                                                                                                                                                                                                                                                                                                                                           
 2 90023  54.9132 182.6983 0017768 176.8444 183.1487  2.0055852401395                                                                                                                                                                                                                                                                                                                                                                                                                                                           

         0.0000000        2.0055852        0.0017768       54.9132000      182.6983000      176.8444000      183.1487000
      2700.0000000        2.0055846        0.0017805       54.9161303      182.6251793      177.1305343       96.6673174
      5400.0000000        2.0055839        0.0017840       54.9156918      182.5517341      177.3488760       10.2543822
      8100.0000000        2.0055833        0.0017893       54.9137433      182.4774992      177.3302905      284.0830823
     10800.0000000        2.0055826        0.0017971       54.9124938      182.4026100      177.2358116      197.9923758
     13500.0000000        2.0055820        0.0018059       54.9133761      182.3275358      177.2886489      111.7563503
     16200.0000000        2.0055813        0.0018135       54.9166636      182.2528295      177.5402630       25.3197137
     18900.0000000        2.0055806        0.0018190       54.9213352      182.1789023      177.8205877      298.8490626
     21600.0000000        2.0055800        0.0018232       54.9252790      182.1057618      177.9102600      212.5625767
     24300.0000000        2.0055793        0.0018278       54.9263521      182.0328457      177.8420573      126.4302818
     27000.0000000        2.0055787        0.0018319       54.9241333      181.9592755      177.9148503       40.1592354
     29700.0000000        2.0055780        0.0018327       54.9207628      181.8845446      178.2297507      313.6530083
     32400.0000000        2.0055774        0.0018305       54.9194993      181.8090446      178.4605833      227.2368017
     35100.0000000        2.0055767        0.0018294       54.9219653      181.7338377      178.3622280      141.1492649
     37800.0000000        2.0055761        0.0018320       54.9265743      181.6597785      178.2132811       55.1051232
     40500.0000000        2.0055754        0.0018360       54.9298738      181.5867616      178.3601984      328.7569711
     43200.0000000        2.0055748        0.0018394       54.9296869      181.5138921      178.6538961      242.2591047

